{"type": "FeatureCollection", "features": [ {"type": "Feature", "properties": {"norad_id": 54234, "name": "NOAA 21 (JPSS-2)", "group": "weather", "lat": -44.324148067612, "lon": 101.96444665370863, "alt_km": 834.874050303265, "timestamp": "2025-12-20T09:36:01.274294+00:00", "meta": {"OBJECT_NAME": "NOAA 21 (JPSS-2)", "OBJECT_ID": "2022-150A", "EPOCH": "2025-12-20T03:28:08.872032", "MEAN_MOTION": 14.19526063, "ECCENTRICITY": 0.0001898, "INCLINATION": 98.7472, "RA_OF_ASC_NODE": 290.3607, "ARG_OF_PERICENTER": 23.4059, "MEAN_ANOMALY": 336.7203, "EPHEMERIS_TYPE": 0, "CLASSIFICATION_TYPE": "U", "NORAD_CAT_ID": 54234, "ELEMENT_SET_NO": 999, "REV_AT_EPOCH": 16114, "BSTAR": 4.2249e-05, "MEAN_MOTION_DOT": 4.5e-07, "MEAN_MOTION_DDOT": 0}, "tle": {"line1": "1 54234U 22150A   25354.14454713  .00000045  00000+0  42249-4 0  9999", "line2": "2 54234  98.7472 290.3607 0001898  23.4059 336.7203 14.19526063161147"}}, "geometry": {"type": "Point", "coordinates": [101.96444665370863, -44.324148067612]}}, {"type": "Feature", "properties": {"norad_id": 54743, "name": "METEOSAT-12 (MTG-I1)", "group": "weather", "lat": -0.3492425718178164, "lon": -127.08717781302276, "alt_km": 35781.11193016408, "timestamp": "2025-12-20T09:36:01.274309+00:00", "meta": {"OBJECT_NAME": "METEOSAT-12 (MTG-I1)", "OBJECT_ID": "2022-170C", "EPOCH": "2025-12-20T03:48:38.814048", "MEAN_MOTION": 1.00270538, "ECCENTRICITY": 0.0001483, "INCLINATION": 0.6942, "RA_OF_ASC_NODE": 24.8229, "ARG_OF_PERICENTER": 239.6074, "MEAN_ANOMALY": 241.4222, "EPHEMERIS_TYPE": 0, "CLASSIFICATION_TYPE": "U", "NORAD_CAT_ID": 54743, "ELEMENT_SET_NO": 999, "REV_AT_EPOCH": 1118, "BSTAR": 0, "MEAN_MOTION_DOT": 1.6e-07, "MEAN_MOTION_DDOT": 0}, "tle": {"line1": "1 54743U 22170C   25354.15878257  .00000016  00000+0  00000+0 0  9992", "line2": "2 54743   0.6942  24.8229 0001483 239.6074 241.4222  1.00270538 11184"}}, "geometry": {"type": "Point", "coordinates": [-127.08717781302276, -0.3492425718178164]}}, {"type": "Feature", "properties": {"norad_id": 55973, "name": "TIANMU-1 03", "group": "weather", "lat": -74.13329634649604, "lon": -50.38992313992057, "alt_km": 452.3238024197635, "timestamp": "2025-12-20T09:36:01.274320+00:00", "meta": {"OBJECT_NAME": "TIANMU-1 03", "OBJECT_ID": "2023-039A", "EPOCH": "2025-12-19T21:35:05.186976", "MEAN_MOTION": 15.41120795, "ECCENTRICITY": 0.00040941, "INCLINATION": 97.5103, "RA_OF_ASC_NODE": 156.7516, "ARG_OF_PERICENTER": 40.4854, "MEAN_ANOMALY": 319.6696, "EPHEMERIS_TYPE": 0, "CLASSIFICATION_TYPE": "U", "NORAD_CAT_ID": 55973, "ELEMENT_SET_NO": 999, "REV_AT_EPOCH": 15316, "BSTAR": 0.00026286438, "MEAN_MOTION_DOT": 0.00010799, "MEAN_MOTION_DDOT": 0}, "tle": {"line1": "1 55973U 23039A   25353.89936559  .00010799  00000+0  26286-3 0  9990", "line2": "2 55973  97.5103 156.7516 0004094  40.4854 319.6696 15.41120795153160"}}, "geometry": {"type": "Point", "coordinates": [-50.38992313992057, -74.13329634649604]}}, {"type": "Feature", "properties": {"norad_id": 55974, "name": "TIANMU-1 04", "group": "weather", "lat": 18.983868685474704, "lon": 153.855129533753, "alt_km": 438.9830676412457, "timestamp": "2025-12-20T09:36:01.274331+00:00", "meta": {"OBJECT_NAME": "TIANMU-1 04", "OBJECT_ID": "2023-039B", "EPOCH": "2025-12-19T22:36:42.471936", "MEAN_MOTION": 15.41462598, "ECCENTRICITY": 0.00047079, "INCLINATION": 97.5036, "RA_OF_ASC_NODE": 155.9836, "ARG_OF_PERICENTER": 34.5946, "MEAN_ANOMALY": 325.5606, "EPHEMERIS_TYPE": 0, "CLASSIFICATION_TYPE": "U", "NORAD_CAT_ID": 55974, "ELEMENT_SET_NO": 999, "REV_AT_EPOCH": 15317, "BSTAR": 0.00026356344, "MEAN_MOTION_DOT": 0.00010953, "MEAN_MOTION_DDOT": 0}, "tle": {"line1": "1 55974U 23039B   25353.94215824  .00010953  00000+0  26356-3 0  9992", "line2": "2 55974  97.5036 155.9836 0004707  34.5946 325.5606 15.41462598153177"}}, "geometry": {"type": "Point", "coordinates": [153.855129533753, 18.983868685474704]}}, {"type": "Feature", "properties": {"norad_id": 55975, "name": "TIANMU-1 05", "group": "weather", "lat": 40.15222823686163, "lon": 150.55839222483127, "alt_km": 437.1294006209164, "timestamp": "2025-12-20T09:36:01.274341+00:00", "meta": {"OBJECT_NAME": "TIANMU-1 05", "OBJECT_ID": "2023-039C", "EPOCH": "2025-12-19T22:30:59.436288", "MEAN_MOTION": 15.41079612, "ECCENTRICITY": 0.00041448, "INCLINATION": 97.5082, "RA_OF_ASC_NODE": 156.4723, "ARG_OF_PERICENTER": 58.6971, "MEAN_ANOMALY": 301.4681, "EPHEMERIS_TYPE": 0, "CLASSIFICATION_TYPE": "U", "NORAD_CAT_ID": 55975, "ELEMENT_SET_NO": 999, "REV_AT_EPOCH": 15315, "BSTAR": 0.00027241768, "MEAN_MOTION_DOT": 0.0001118, "MEAN_MOTION_DDOT": 0}, "tle": {"line1": "1 55975U 23039C   25353.93818792  .00011180  00000+0  27242-3 0  9993", "line2": "2 55975  97.5082 156.4723 0004144  58.6971 301.4681 15.41079612153155"}}, "geometry": {"type": "Point", "coordinates": [150.55839222483127, 40.15222823686163]}}, {"type": "Feature", "properties": {"norad_id": 55976, "name": "TIANMU-1 06", "group": "weather", "lat": 8.424133812928767, "lon": 156.29877574660347, "alt_km": 441.3388682990271, "timestamp": "2025-12-20T09:36:01.274354+00:00", "meta": {"OBJECT_NAME": "TIANMU-1 06", "OBJECT_ID": "2023-039D", "EPOCH": "2025-12-19T22:39:29.514240", "MEAN_MOTION": 15.41514113, "ECCENTRICITY": 0.00044392, "INCLINATION": 97.5093, "RA_OF_ASC_NODE": 156.9493, "ARG_OF_PERICENTER": 53.0748, "MEAN_ANOMALY": 307.0904, "EPHEMERIS_TYPE": 0, "CLASSIFICATION_TYPE": "U", "NORAD_CAT_ID": 55976, "ELEMENT_SET_NO": 999, "REV_AT_EPOCH": 15317, "BSTAR": 0.00026090252, "MEAN_MOTION_DOT": 0.0001086, "MEAN_MOTION_DDOT": 0}, "tle": {"line1": "1 55976U 23039D   25353.94409160  .00010860  00000+0  26090-3 0  9994", "line2": "2 55976  97.5093 156.9493 0004439  53.0748 307.0904 15.41514113153177"}}, "geometry": {"type": "Point", "coordinates": [156.29877574660347, 8.424133812928767]}}, {"type": "Feature", "properties": {"norad_id": 56232, "name": "FENGYUN 3G", "group": "weather", "lat": 35.08615888290383, "lon": -28.24827492917082, "alt_km": 396.1206126343086, "timestamp": "2025-12-20T09:36:01.274364+00:00", "meta": {"OBJECT_NAME": "FENGYUN 3G", "OBJECT_ID": "2023-055A", "EPOCH": "2025-12-19T22:14:07.766592", "MEAN_MOTION": 15.54051193, "ECCENTRICITY": 0.00093146, "INCLINATION": 49.9918, "RA_OF_ASC_NODE": 190.3568, "ARG_OF_PERICENTER": 180.8732, "MEAN_ANOMALY": 179.2221, "EPHEMERIS_TYPE": 0, "CLASSIFICATION_TYPE": "U", "NORAD_CAT_ID": 56232, "ELEMENT_SET_NO": 999, "REV_AT_EPOCH": 15214, "BSTAR": 0.0003256242, "MEAN_MOTION_DOT": 0.00021141, "MEAN_MOTION_DDOT": 0}, "tle": {"line1": "1 56232U 23055A   25353.92647878  .00021141  00000+0  32562-3 0  9991", "line2": "2 56232  49.9918 190.3568 0009314 180.8732 179.2221 15.54051193152149"}}, "geometry": {"type": "Point", "coordinates": [-28.24827492917082, 35.08615888290383]}}, {"type": "Feature", "properties": {"norad_id": 57166, "name": "METEOR-M2 3", "group": "weather", "lat": -73.05193718869221, "lon": -162.1120019537091, "alt_km": 819.0789991127713, "timestamp": "2025-12-20T09:36:01.274374+00:00", "meta": {"OBJECT_NAME": "METEOR-M2 3", "OBJECT_ID": "2023-091A", "EPOCH": "2025-12-19T22:17:12.274656", "MEAN_MOTION": 14.24026894, "ECCENTRICITY": 0.00034996, "INCLINATION": 98.6367, "RA_OF_ASC_NODE": 47.3421, "ARG_OF_PERICENTER": 347.3826, "MEAN_ANOMALY": 12.7265, "EPHEMERIS_TYPE": 0, "CLASSIFICATION_TYPE": "U", "NORAD_CAT_ID": 57166, "ELEMENT_SET_NO": 999, "REV_AT_EPOCH": 12900, "BSTAR": 2.4272361e-05, "MEAN_MOTION_DOT": 1.2e-07, "MEAN_MOTION_DDOT": 0}, "tle": {"line1": "1 57166U 23091A   25353.92861429  .00000012  00000+0  24272-4 0  9992", "line2": "2 57166  98.6367  47.3421 0003499 347.3826  12.7265 14.24026894129000"}}, "geometry": {"type": "Point", "coordinates": [-162.1120019537091, -73.05193718869221]}}, {"type": "Feature", "properties": {"norad_id": 57399, "name": "TIANMU-1 07", "group": "weather", "lat": 67.10122988438701, "lon": 26.447015440063666, "alt_km": 471.14507380119176, "timestamp": "2025-12-20T09:36:01.274384+00:00", "meta": {"OBJECT_NAME": "TIANMU-1 07", "OBJECT_ID": "2023-101A", "EPOCH": "2025-12-19T22:18:08.921088", "MEAN_MOTION": 15.28167541, "ECCENTRICITY": 0.00053186, "INCLINATION": 97.2868, "RA_OF_ASC_NODE": 43.6208, "ARG_OF_PERICENTER": 63.2607, "MEAN_ANOMALY": 296.9176, "EPHEMERIS_TYPE": 0, "CLASSIFICATION_TYPE": "U", "NORAD_CAT_ID": 57399, "ELEMENT_SET_NO": 999, "REV_AT_EPOCH": 13425, "BSTAR": 0.00018174024, "MEAN_MOTION_DOT": 4.918e-05, "MEAN_MOTION_DDOT": 0}, "tle": {"line1": "1 57399U 23101A   25353.92926992  .00004918  00000+0  18174-3 0  9991", "line2": "2 57399  97.2868  43.6208 0005318  63.2607 296.9176 15.28167541134254"}}, "geometry": {"type": "Point", "coordinates": [26.447015440063666, 67.10122988438701]}}, {"type": "Feature", "properties": {"norad_id": 57400, "name": "TIANMU-1 08", "group": "weather", "lat": -68.36093857042437, "lon": -154.93592878932955, "alt_km": 493.57556056803514, "timestamp": "2025-12-20T09:36:01.274396+00:00", "meta": {"OBJECT_NAME": "TIANMU-1 08", "OBJECT_ID": "2023-101B", "EPOCH": "2025-12-19T23:04:57.670176", "MEAN_MOTION": 15.2815057, "ECCENTRICITY": 0.00072823, "INCLINATION": 97.2857, "RA_OF_ASC_NODE": 43.4494, "ARG_OF_PERICENTER": 63.7283, "MEAN_ANOMALY": 296.4704, "EPHEMERIS_TYPE": 0, "CLASSIFICATION_TYPE": "U", "NORAD_CAT_ID": 57400, "ELEMENT_SET_NO": 999, "REV_AT_EPOCH": 13425, "BSTAR": 0.00019020814, "MEAN_MOTION_DOT": 5.15e-05, "MEAN_MOTION_DDOT": 0}, "tle": {"line1": "1 57400U 23101B   25353.96177859  .00005150  00000+0  19021-3 0  9999", "line2": "2 57400  97.2857  43.4494 0007282  63.7283 296.4704 15.28150570134253"}}, "geometry": {"type": "Point", "coordinates": [-154.93592878932955, -68.36093857042437]}}]}